{
"type": "FeatureCollection",
"name": "hotels",
"crs": { "type": "name", "properties": { "name": "urn:ogc:def:crs:EPSG::32650" } },
"features": [
{ "type": "Feature", "properties": { "名称": "背包青年旅舍(南京新街口店)", "大类": "住宿服务", "中类": "旅馆招待所", "小类": "青年旅舍", "地址": "升州路3号11楼三山街地铁三号出口右拐200米靠马路高楼钱塘人家和桔子水晶中间", "省": "江苏省", "市": "南京市", "区": "秦淮区", "WGS84_经": 118.778641921, "WGS84_纬": 32.025119650900002 }, "geometry": { "type": "Point", "coordinates": [ 667968.313064760994166, 3544602.835407740436494 ] } },
{ "type": "Feature", "properties": { "名称": "南京夫子庙130米地铁旁近新街口总统府中山陵普通公寓", "大类": "住宿服务", "中类": "住宿服务相关", "小类": "住宿服务相关", "地址": "夫子庙砂珠巷小区5栋512房间", "省": "江苏省", "市": "南京市", "区": "秦淮区", "WGS84_经": 118.77827724, "WGS84_纬": 32.027310725600003 }, "geometry": { "type": "Point", "coordinates": [ 667929.869621604681015, 3544845.184957893565297 ] } },
{ "type": "Feature", "properties": { "名称": "南京泰格青年旅舍(新街口店)", "大类": "住宿服务", "中类": "住宿服务相关", "小类": "住宿服务相关", "地址": "夫子庙大石坝街59号三楼,近地铁1、3号线", "省": "江苏省", "市": "南京市", "区": "秦淮区", "WGS84_经": 118.785486076, "WGS84_纬": 32.021258460299997 }, "geometry": { "type": "Point", "coordinates": [ 668621.817628147662617, 3544185.423738370183855 ] } },
{ "type": "Feature", "properties": { "名称": "南京市中心新街口夫子庙金陵宅普通公寓", "大类": "住宿服务", "中类": "住宿服务相关", "小类": "住宿服务相关", "地址": "夫子庙街道东关头路白鹭小区北二门丁官营4幢丁官营10号4栋104室", "省": "江苏省", "市": "南京市", "区": "秦淮区", "WGS84_经": 118.791736965, "WGS84_纬": 32.024447198899999 }, "geometry": { "type": "Point", "coordinates": [ 669206.37398664734792, 3544548.724934535101056 ] } }
]
}
