{
"type": "FeatureCollection",
"name": "metro-lines",
"crs": { "type": "name", "properties": { "name": "urn:ogc:def:crs:EPSG::32650" } },
"features": [
{ "type": "Feature", "properties": { "OBJECTID": 1, "线路名": "地铁13号线(金箔路-乐山路)", "Shape_Leng": 0.19868776433 }, "geometry": { "type": "LineString", "coordinates": [ [ 675313.881571857491508, 3537144.121765658259392 ], [ 675094.129776409361511, 3538207.308431718498468 ], [ 674988.185303814709187, 3539720.278936481568962 ], [ 673521.512032744591124, 3542327.357274661306292 ], [ 673682.522232672898099, 3543715.723252716474235 ], [ 673393.01816083281301, 3545365.386025990359485 ], [ 672762.442591190338135, 3545342.980078891385347 ], [ 671554.968424530001357, 3545594.462453408166766 ], [ 670453.568730111583136, 3545984.154082007706165 ], [ 669989.298417849000543, 3547155.887153910007328 ], [ 669079.525690681766719, 3547444.331838340964168 ], [ 667941.078176070586778, 3547623.229022937826812 ], [ 667169.906881030881777, 3547623.984041810501367 ], [ 666582.518830030690879, 3547470.956524648237973 ], [ 665589.532409937120974, 3547367.042498092167079 ], [ 664559.508244108525105, 3547116.544911270029843 ], [ 663708.979006313486025, 3547130.421239291783422 ], [ 662915.499135236488655, 3547159.023955270648003 ] ] } },
{ "type": "Feature", "properties": { "OBJECTID": 2, "线路名": "地铁S8号线南延(泰山新村-长江大桥北)", "Shape_Leng": 0.021759997524099999 }, "geometry": { "type": "LineString", "coordinates": [ [ 661349.518924886127934, 3557985.427520354744047 ], [ 662427.446107163210399, 3556830.720669276546687 ], [ 662701.028935850481503, 3556203.90920078381896 ] ] } },
{ "type": "Feature", "properties": { "OBJECTID": 3, "线路名": "地铁S8号线南延(长江大桥北-泰山新村)", "Shape_Leng": 0.021759997524099999 }, "geometry": { "type": "LineString", "coordinates": [ [ 662701.028935850481503, 3556203.90920078381896 ], [ 662427.446107163210399, 3556830.720669276546687 ], [ 661349.518924886127934, 3557985.427520354744047 ] ] } },
{ "type": "Feature", "properties": { "OBJECTID": 4, "线路名": "地铁3号线三期(秣陵街道-秣周东路)", "Shape_Leng": 0.029286530012899999 }, "geometry": { "type": "LineString", "coordinates": [ [ 673195.379398148390464, 3524475.246347359381616 ], [ 673300.006406642729416, 3525871.209975462406874 ], [ 672748.193440690869465, 3527602.866281456314027 ] ] } },
{ "type": "Feature", "properties": { "OBJECTID": 5, "线路名": "地铁S2号线(宁马线)(当涂南-中华门)", "Shape_Leng": 0.66493360826799996 }, "geometry": { "type": "LineString", "coordinates": [ [ 639997.671813778579235, 3483883.907881713472307 ], [ 644208.182718943338841, 3493067.883728570770472 ], [ 643961.842881142860278, 3501393.354422349017113 ], [ 643970.375353927956894, 3502881.957539581228048 ], [ 643936.7343986320775, 3505369.306669324636459 ], [ 643914.024110409547575, 3506685.18096667015925 ], [ 643892.715864961966872, 3508576.456361240241677 ], [ 642181.094173121498898, 3515018.798776472918689 ], [ 645915.155749216326512, 3519290.81268507335335 ], [ 648778.877382341306657, 3523780.082971363794059 ], [ 650162.898398209013976, 3525879.95825688354671 ], [ 651866.495981039013714, 3528334.863781794905663 ], [ 652991.608262388384901, 3528937.451274409424514 ], [ 654628.429707553121261, 3531559.514856073539704 ], [ 656951.418009401066229, 3533621.983992386143655 ], [ 659287.259585688938387, 3535939.333558264188468 ], [ 662164.205217572627589, 3538227.578757181763649 ], [ 664316.735534296371043, 3540030.173922724556178 ], [ 665249.731107443221845, 3541853.14056271314621 ], [ 667130.475489080185071, 3542793.240905027836561 ] ] } },
{ "type": "Feature", "properties": { "OBJECTID": 6, "线路名": "地铁S5号线(宁扬线)(扬州西站-仙林湖)", "Shape_Leng": 0.54056666297099998 }, "geometry": { "type": "LineString", "coordinates": [ [ 720614.047537111327983, 3586285.293147074989974 ], [ 721368.347010562079959, 3583951.05289621790871 ], [ 722639.039131717057899, 3580137.029710112605244 ], [ 718704.938949797535315, 3575130.861501067876816 ], [ 710889.438561968505383, 3573873.837353134993464 ], [ 707727.748425696510822, 3574286.799751773476601 ], [ 704816.488158876774833, 3573638.452446721028537 ], [ 703351.16868527175393, 3571783.380218457430601 ], [ 702496.695686675608158, 3566878.267911436036229 ], [ 701507.504359074286185, 3564165.735562795307487 ], [ 698891.535808282671496, 3563570.041144041344523 ], [ 696004.124221010599285, 3563287.056140206754208 ], [ 693772.989070648793131, 3562276.935525006148964 ], [ 691746.000411746790633, 3560389.241147711873055 ], [ 687783.680811903788708, 3558161.708588627632707 ], [ 687462.487675244687125, 3556304.120310714934021 ] ] } },
{ "type": "Feature", "properties": { "OBJECTID": 7, "线路名": "地铁S5号线(宁扬线)(仙林湖-扬州西站)", "Shape_Leng": 0.54056666297099998 }, "geometry": { "type": "LineString", "coordinates": [ [ 687462.487675244687125, 3556304.120310714934021 ], [ 687783.680811903788708, 3558161.708588627632707 ], [ 691746.000411746790633, 3560389.241147711873055 ], [ 693772.989070648793131, 3562276.935525006148964 ], [ 696004.124221010599285, 3563287.056140206754208 ], [ 698891.535808282671496, 3563570.041144041344523 ], [ 701507.504359074286185, 3564165.735562795307487 ], [ 702496.695686675608158, 3566878.267911436036229 ], [ 703351.16868527175393, 3571783.380218457430601 ], [ 704816.488158876774833, 3573638.452446721028537 ], [ 707727.748425696510822, 3574286.799751773476601 ], [ 710889.438561968505383, 3573873.837353134993464 ], [ 718704.938949797535315, 3575130.861501067876816 ], [ 722639.039131717057899, 3580137.029710112605244 ], [ 721368.347010562079959, 3583951.05289621790871 ], [ 720614.047537111327983, 3586285.293147074989974 ] ] } },
{ "type": "Feature", "properties": { "OBJECTID": 8, "线路名": "地铁10号线二期(东麒路-安德门)", "Shape_Leng": 0.12788648903700001 }, "geometry": { "type": "LineString", "coordinates": [ [ 677672.283729729708284, 3542328.220391374081373 ], [ 676537.851622532820329, 3542766.735823679249734 ], [ 675376.897626847610809, 3542942.657825191505253 ], [ 673514.679772593779489, 3542350.925407245755196 ], [ 672296.075006135972217, 3542219.787822303827852 ], [ 671809.370876065106131, 3541872.444889602251351 ], [ 670650.357263035606593, 3541305.836188190151006 ], [ 669126.56609212141484, 3541484.804534739814699 ], [ 667764.609899416333064, 3541078.617240076418966 ], [ 667156.088735975208692, 3541118.465031071566045 ], [ 665971.776406826917082, 3540989.467404432129115 ] ] } },
{ "type": "Feature", "properties": { "OBJECTID": 9, "线路名": "地铁11号线(浦洲路-马骡圩)", "Shape_Leng": 0.24944244237900001 }, "geometry": { "type": "LineString", "coordinates": [ [ 664417.093276942847297, 3559248.998031904455274 ], [ 664236.710629435139708, 3557555.155053700786084 ], [ 663451.826976933516562, 3556286.366461567115039 ], [ 662779.380742224399, 3555998.429549443069845 ], [ 661603.3857839332195, 3555109.659031110815704 ], [ 661170.926477367756888, 3554105.422101990319788 ], [ 660876.955569468671456, 3553556.864771499764174 ], [ 659849.20074329059571, 3552607.776741039473563 ], [ 659479.044776213355362, 3552056.962447963654995 ], [ 658901.572633402654901, 3551385.715826424770057 ], [ 658251.974677155842073, 3550761.112584332935512 ], [ 657041.115116423694417, 3550219.178316509816796 ], [ 656184.625952127156779, 3548603.154427038971335 ], [ 655143.978246022714302, 3547155.5535952844657 ], [ 654530.060971413040534, 3546316.116346535272896 ], [ 653934.632384680444375, 3545432.417066664434969 ], [ 653088.521044309949502, 3544394.056761699728668 ], [ 652360.214199069188908, 3543224.326690985355526 ], [ 651562.176249825628474, 3541883.994839946273714 ], [ 649573.31341284676455, 3538870.395268845371902 ] ] } },
{ "type": "Feature", "properties": { "OBJECTID": 10, "线路名": "地铁9号线(江苏大剧院·宪法广场-红山", "Shape_Leng": 0.17330576476699999 }, "geometry": { "type": "LineString", "coordinates": [ [ 661089.609047193080187, 3543378.583047404419631 ], [ 661455.018432076089084, 3544664.697766142431647 ], [ 661765.990121228271164, 3545633.242486954201013 ], [ 662808.926257884362713, 3545829.607519283425063 ], [ 663685.73817163973581, 3546365.510870310012251 ], [ 663728.006736254319549, 3547139.341966842766851 ], [ 663737.87098392972257, 3548416.190367959439754 ], [ 663627.339502653339878, 3549184.188471521716565 ], [ 663810.68722913460806, 3550351.104823153465986 ], [ 663934.755728230113164, 3551623.81432106345892 ], [ 665093.084430484101176, 3552369.14624007884413 ], [ 666728.8759882429149, 3552247.724856885150075 ], [ 667486.70367752481252, 3552063.735225539188832 ], [ 669039.440431564231403, 3551924.271803798619658 ], [ 670408.057479156879708, 3551457.040489939507097 ], [ 671045.24454093631357, 3552428.179904947057366 ] ] } },
{ "type": "Feature", "properties": { "OBJECTID": 11, "线路名": "地铁9号线(红山新城-江苏大剧院·宪法", "Shape_Leng": 0.17330576476699999 }, "geometry": { "type": "LineString", "coordinates": [ [ 671045.24454093631357, 3552428.179904947057366 ], [ 670408.057479156879708, 3551457.040489939507097 ], [ 669039.440431564231403, 3551924.271803798619658 ], [ 667486.70367752481252, 3552063.735225539188832 ], [ 666728.8759882429149, 3552247.724856885150075 ], [ 665093.084430484101176, 3552369.14624007884413 ], [ 663934.755728230113164, 3551623.81432106345892 ], [ 663810.68722913460806, 3550351.104823153465986 ], [ 663627.339502653339878, 3549184.188471521716565 ], [ 663737.87098392972257, 3548416.190367959439754 ], [ 663728.006736254319549, 3547139.341966842766851 ], [ 663685.73817163973581, 3546365.510870310012251 ], [ 662808.926257884362713, 3545829.607519283425063 ], [ 661765.990121228271164, 3545633.242486954201013 ], [ 661455.018432076089084, 3544664.697766142431647 ], [ 661089.609047193080187, 3543378.583047404419631 ] ] } },
{ "type": "Feature", "properties": { "OBJECTID": 12, "线路名": "地铁5号线(方家营-吉印大道)", "Shape_Leng": 0.32277676990100002 }, "geometry": { "type": "LineString", "coordinates": [ [ 664213.376590048894286, 3553415.413949646987021 ], [ 663806.007998896995559, 3552613.262558239512146 ], [ 663483.065668245311826, 3552195.264539129566401 ], [ 663971.931369685102254, 3551611.705187155865133 ], [ 664881.643086109659635, 3551518.797098202165216 ], [ 665582.1752241399372, 3550887.830764016136527 ], [ 666163.108644725056365, 3550313.747743900399655 ], [ 666856.67858827393502, 3549631.418602173682302 ], [ 667035.069908580742776, 3548600.330975095741451 ], [ 667179.742634924710728, 3547630.635554299689829 ], [ 667220.148543310933746, 3546733.477862963452935 ], [ 666903.242822904139757, 3545650.953869700431824 ], [ 667849.863355067791417, 3544669.62530066864565 ], [ 668656.621396356960759, 3544666.82502958457917 ], [ 669972.362900838954374, 3544915.357907465659082 ], [ 670919.866426971042529, 3544705.967448549345136 ], [ 671840.060079847462475, 3544087.596560667268932 ], [ 671930.105528086423874, 3543065.017438278533518 ], [ 671890.005356217967346, 3541933.216748125385493 ], [ 671987.415894456440583, 3540874.308935909066349 ], [ 673318.200343538774177, 3539030.636569178197533 ], [ 673391.062506772810593, 3538121.842498001176864 ], [ 673770.600758206099272, 3536961.810113918036222 ], [ 673963.150631227646954, 3535705.105146393179893 ], [ 674000.587726553669199, 3534627.493366008624434 ], [ 674416.353891708655283, 3533650.546008610632271 ], [ 673845.629372742492706, 3532214.891035844106227 ], [ 672644.755645034718327, 3532069.148153455927968 ], [ 670721.364689069218002, 3530231.440327099058777 ], [ 669324.970104492502287, 3529438.931345107033849 ] ] } },
{ "type": "Feature", "properties": { "OBJECTID": 13, "线路名": "地铁S6号线(宁句线)(句容-马群)", "Shape_Leng": 0.397919615808 }, "geometry": { "type": "LineString", "coordinates": [ [ 704637.447325867484324, 3534120.278078524395823 ], [ 705418.439225244452246, 3536409.980335424654186 ], [ 705516.733371982816607, 3539664.335423486307263 ], [ 703902.086384414578788, 3541765.279507393017411 ], [ 699382.52182390447706, 3543502.685299461707473 ], [ 693264.023754046414979, 3546205.429116292390972 ], [ 694726.318408260820433, 3547786.57908465154469 ], [ 693267.239831504877657, 3549302.607257424853742 ], [ 689197.701183581259102, 3547885.235548770520836 ], [ 683854.82837777864188, 3548080.957770427688956 ], [ 681557.621813324396499, 3548183.62519543338567 ], [ 680303.440053054946475, 3548187.810313113965094 ], [ 678392.710842097178102, 3547742.469921011477709 ] ] } },
{ "type": "Feature", "properties": { "OBJECTID": 14, "线路名": "地铁S9号线(高淳-翔宇路南)", "Shape_Leng": 0.44100493345300001 }, "geometry": { "type": "LineString", "coordinates": [ [ 678118.427145042223856, 3469180.858617207035422 ], [ 679000.143858805531636, 3475239.162822677753866 ], [ 680084.548620788147673, 3491924.180790028069168 ], [ 680401.082919260719791, 3502387.324345659930259 ], [ 677823.230688566574827, 3508541.591935865581036 ], [ 672756.449212104897015, 3514936.085471806116402 ] ] } },
{ "type": "Feature", "properties": { "OBJECTID": 15, "线路名": "地铁S9号线(翔宇路南-高淳)", "Shape_Leng": 0.44100493345300001 }, "geometry": { "type": "LineString", "coordinates": [ [ 672756.449212104897015, 3514936.085471806116402 ], [ 677823.230688566574827, 3508541.591935865581036 ], [ 680401.082919260719791, 3502387.324345659930259 ], [ 680084.548620788147673, 3491924.180790028069168 ], [ 679000.143858805531636, 3475239.162822677753866 ], [ 678118.427145042223856, 3469180.858617207035422 ] ] } },
{ "type": "Feature", "properties": { "OBJECTID": 16, "线路名": "地铁S8号线(泰山新村-金牛湖)", "Shape_Leng": 0.41793685806899999 }, "geometry": { "type": "LineString", "coordinates": [ [ 661349.527405983884819, 3557985.427754878997803 ], [ 661648.719121064990759, 3559022.059422510210425 ], [ 661631.887720387079753, 3561666.508791872300208 ], [ 662283.474144345615059, 3564445.659849892836064 ], [ 662593.482922022114508, 3565767.012686302885413 ], [ 663461.504398367134854, 3567365.797421504277736 ], [ 664718.125861480133608, 3569109.755858334712684 ], [ 666835.492561757215299, 3572361.306445103604347 ], [ 667644.142086126143113, 3573691.969633292406797 ], [ 669460.942394410609268, 3575910.689960651565343 ], [ 670870.228179114870727, 3577485.977148038335145 ], [ 672385.332074862439185, 3579247.151078672148287 ], [ 673155.728101223125122, 3580628.751310281455517 ], [ 673579.495799537166022, 3581987.066152696497738 ], [ 677441.860613705241121, 3586567.223147906828672 ], [ 681281.570168467471376, 3589652.309604277368635 ], [ 684102.012924695503898, 3593920.50125583447516 ] ] } },
{ "type": "Feature", "properties": { "OBJECTID": 17, "线路名": "地铁S7号线(无想山-空港新城江宁)", "Shape_Leng": 0.25813182121599998 }, "geometry": { "type": "LineString", "coordinates": [ [ 693615.061227978207171, 3499371.24048014357686 ], [ 693565.018130275653675, 3500848.505973885301501 ], [ 693435.067040760652162, 3503296.164371294900775 ], [ 693334.11101694626268, 3505011.117873480077833 ], [ 693149.405095348716713, 3507678.936780351214111 ], [ 690346.247190249036066, 3511495.929227732121944 ], [ 687979.699704055441543, 3512861.419732619542629 ], [ 683072.441787153016776, 3515318.675299437716603 ], [ 678334.604312166571617, 3513139.244371679611504 ] ] } },
{ "type": "Feature", "properties": { "OBJECTID": 18, "线路名": "地铁S3号线(高家冲-南京南站)", "Shape_Leng": 0.33384125638700002 }, "geometry": { "type": "LineString", "coordinates": [ [ 642946.65232501947321, 3531579.192744535394013 ], [ 644254.498603218467906, 3532683.479758395813406 ], [ 645857.253569356515072, 3533981.715148922987282 ], [ 646790.93672500224784, 3534853.781277045141906 ], [ 647653.43142663652543, 3536002.140850220341235 ], [ 648341.43176249996759, 3537114.993731739465147 ], [ 649600.919869414297864, 3538811.442267744336277 ], [ 656898.260640508844517, 3535702.301311085000634 ], [ 658075.880786663619801, 3536709.840111275203526 ], [ 659048.951644526328892, 3538374.82379189459607 ], [ 659488.979749621474184, 3539193.202412330079824 ], [ 660387.192526206024922, 3539453.422545761801302 ], [ 661283.411503158742562, 3539086.654194444417953 ], [ 662006.047017855802551, 3538146.490335899870843 ], [ 663359.256824640440755, 3537455.516177244018763 ], [ 664713.568234238540754, 3537827.047622423619032 ], [ 666186.727146357763559, 3538070.813835403881967 ], [ 667596.689918875345029, 3537846.479241475928575 ], [ 669287.332901767222211, 3538848.51355184847489 ] ] } },
{ "type": "Feature", "properties": { "OBJECTID": 19, "线路名": "地铁S3号线(南京南站-高家冲)", "Shape_Leng": 0.33384125638700002 }, "geometry": { "type": "LineString", "coordinates": [ [ 669287.332901767222211, 3538848.51355184847489 ], [ 667596.689918875345029, 3537846.479241475928575 ], [ 666186.727146357763559, 3538070.813835403881967 ], [ 664713.568234238540754, 3537827.047622423619032 ], [ 663359.256824640440755, 3537455.516177244018763 ], [ 662006.047017855802551, 3538146.490335899870843 ], [ 661283.411503158742562, 3539086.654194444417953 ], [ 660387.192526206024922, 3539453.422545761801302 ], [ 659488.979749621474184, 3539193.202412330079824 ], [ 659048.951644526328892, 3538374.82379189459607 ], [ 658075.880786663619801, 3536709.840111275203526 ], [ 656898.260640508844517, 3535702.301311085000634 ], [ 649600.919869414297864, 3538811.442267744336277 ], [ 648341.43176249996759, 3537114.993731739465147 ], [ 647653.43142663652543, 3536002.140850220341235 ], [ 646790.93672500224784, 3534853.781277045141906 ], [ 645857.253569356515072, 3533981.715148922987282 ], [ 644254.498603218467906, 3532683.479758395813406 ], [ 642946.65232501947321, 3531579.192744535394013 ] ] } },
{ "type": "Feature", "properties": { "OBJECTID": 20, "线路名": "地铁S1号线(空港新城江宁-南京南站)", "Shape_Leng": 0.29052767704900001 }, "geometry": { "type": "LineString", "coordinates": [ [ 678334.604460429982282, 3513139.235797208733857 ], [ 676986.763761800481007, 3512309.32398181129247 ], [ 672760.140417591668665, 3514939.788183385506272 ], [ 671980.162203746731393, 3519010.29905593348667 ], [ 670377.714903317624703, 3524932.55244716303423 ], [ 669326.246690650703385, 3529440.087154348380864 ], [ 668877.693439991096966, 3532551.279921476729214 ], [ 668192.194349665660411, 3535674.378377550747246 ], [ 669291.794567076140083, 3538842.572342129889876 ] ] } },
{ "type": "Feature", "properties": { "OBJECTID": 21, "线路名": "地铁4号线(龙江-仙林湖)", "Shape_Leng": 0.31393874295300001 }, "geometry": { "type": "LineString", "coordinates": [ [ 663540.036710412241518, 3548394.956608191598207 ], [ 665251.248718166258186, 3548703.090812404640019 ], [ 667035.512822548625991, 3548582.747752041555941 ], [ 667848.093020769185387, 3548561.096296285279095 ], [ 669194.196513512986712, 3548436.618335276376456 ], [ 669992.739762156968936, 3548441.757654413580894 ], [ 670933.046517318114638, 3549353.514010099228472 ], [ 672339.238667505094782, 3550729.772556766401976 ], [ 672972.329234176198952, 3551593.475009249988943 ], [ 675451.771753860753961, 3552588.525523379910737 ], [ 677809.40844530868344, 3551618.084704894106835 ], [ 679475.376570730586536, 3550206.987945768050849 ], [ 681791.848025019513443, 3550951.849912489764392 ], [ 682990.832187956664711, 3550923.759605275001377 ], [ 684915.337569252355024, 3550914.713025472126901 ], [ 687072.454095029272139, 3551732.230502675753087 ], [ 687908.131652993848547, 3553358.364966434892267 ], [ 687472.68679869454354, 3556302.439290362875909 ] ] } },
{ "type": "Feature", "properties": { "OBJECTID": 22, "线路名": "地铁3号线(林场-秣周东路)", "Shape_Leng": 0.39840060313600001 }, "geometry": { "type": "LineString", "coordinates": [ [ 657111.172207011259161, 3560027.973304596263915 ], [ 659506.760712462011725, 3559366.274729602504522 ], [ 660555.528398059308529, 3559276.344140666071326 ], [ 661472.238135195802897, 3559002.137464826926589 ], [ 663045.275898938532919, 3558695.146214110776782 ], [ 664207.492849193979055, 3557522.13603082485497 ], [ 666482.153945012018085, 3554841.454647928010672 ], [ 667222.909047651104629, 3554292.792062343563884 ], [ 668005.438644796377048, 3552561.789927606936544 ], [ 669050.3251938293688, 3551959.382687405217439 ], [ 670372.92532306688372, 3550583.88722017314285 ], [ 669233.665249893674627, 3548348.56956790946424 ], [ 669102.501368468278088, 3547540.65660934150219 ], [ 668979.123506960691884, 3546721.620613233186305 ], [ 668756.152597066946328, 3545795.581030080094934 ], [ 668640.089104458224028, 3544748.341358466073871 ], [ 669009.379936269950122, 3543585.947242620866746 ], [ 668807.743617421481758, 3542495.672142441850156 ], [ 669125.254643962951377, 3541504.999660464935005 ], [ 669582.058817430399358, 3540513.69547270052135 ], [ 669633.311871996382251, 3539540.912223708350211 ], [ 669427.054692421690561, 3538588.557606896851212 ], [ 669970.845455649774522, 3537584.486979665234685 ], [ 670352.691316842101514, 3535853.560941783711314 ], [ 670486.861567667336203, 3534117.174827150534838 ], [ 671697.85125450254418, 3532784.346008736174554 ], [ 672551.494076912174933, 3531913.841359713580459 ], [ 672627.114900042302907, 3530602.205996247939765 ], [ 672748.185080045717768, 3527602.857364308554679 ] ] } },
{ "type": "Feature", "properties": { "OBJECTID": 23, "线路名": "地铁1号线(八卦洲大桥南-中国药科大", "Shape_Leng": 0.40855943417500001 }, "geometry": { "type": "LineString", "coordinates": [ [ 673307.63676559063606, 3558279.189982442650944 ], [ 672166.991102913627401, 3558042.565204850863665 ], [ 671296.836342638591304, 3557255.645601522643119 ], [ 671313.385804477380589, 3556171.80573361646384 ], [ 671003.766401298809797, 3555062.824660050217062 ], [ 670260.706868893816136, 3553475.076437139417976 ], [ 669555.826345842564479, 3552693.322333903051913 ], [ 669048.671869911020622, 3551739.845504791010171 ], [ 667862.764361279318109, 3550903.426951832603663 ], [ 667912.295720272697508, 3549817.595703095663339 ], [ 667900.341684874380007, 3548546.912590033374727 ], [ 667952.293091056984849, 3547709.960618719924241 ], [ 667965.873679076437838, 3546520.979354722891003 ], [ 667968.675445047440007, 3545480.80487340176478 ], [ 667766.563602925976738, 3544576.402585851494223 ], [ 667133.572508350480348, 3542799.136848148424178 ], [ 665927.537290826439857, 3541089.391175262164325 ], [ 666088.263278258964419, 3539717.035340593662113 ], [ 667174.172941504511982, 3539499.15367465512827 ], [ 668216.584108615294099, 3539595.043371432926506 ], [ 669417.501157726510428, 3538585.081288266927004 ], [ 671230.778887559194118, 3538108.099683359265327 ], [ 671538.125377808348276, 3536793.233968923334032 ], [ 671687.812275214586407, 3535879.923710838425905 ], [ 671678.81051890947856, 3534581.656939061358571 ], [ 672782.08029634563718, 3534340.734951163642108 ], [ 673886.131723022204824, 3534609.75685913162306 ], [ 675664.882271984010004, 3535280.569314267020673 ], [ 676942.954331936198287, 3535551.184258742257953 ], [ 678193.218339613173157, 3534879.593341923784465 ], [ 679610.658139357110485, 3532610.822464090306312 ], [ 680533.799811952747405, 3530933.457596187014133 ] ] } },
{ "type": "Feature", "properties": { "OBJECTID": 24, "线路名": "地铁10号线(雨山路-安德门)", "Shape_Leng": 0.19970559603800001 }, "geometry": { "type": "LineString", "coordinates": [ [ 652028.013973495690152, 3546754.635059831663966 ], [ 653094.715157242957503, 3548206.488984788302332 ], [ 653885.988161712535657, 3549007.952047710772604 ], [ 655086.117257829057053, 3549268.137082994449884 ], [ 655899.347340574255213, 3548736.674421637319028 ], [ 656701.141585424076766, 3548235.381506368517876 ], [ 660376.582002156181261, 3545520.315322439186275 ], [ 661685.729586920002475, 3544624.371761676855385 ], [ 662123.174743004958145, 3543677.741879396140575 ], [ 661786.992847082903609, 3542919.239043842069805 ], [ 662128.878247392945923, 3541485.295966063626111 ], [ 663244.315891631995328, 3540627.952978529967368 ], [ 664311.507730086217634, 3540030.839803253300488 ], [ 665971.793405704782344, 3540989.467381498776376 ] ] } },
{ "type": "Feature", "properties": { "OBJECTID": 25, "线路名": "地铁S2号线(宁马线)(中华门-当涂南)", "Shape_Leng": 0.66493360826799996 }, "geometry": { "type": "LineString", "coordinates": [ [ 667130.475489080185071, 3542793.240905027836561 ], [ 665249.731107443221845, 3541853.14056271314621 ], [ 664316.735534296371043, 3540030.173922724556178 ], [ 662164.205217572627589, 3538227.578757181763649 ], [ 659287.259585688938387, 3535939.333558264188468 ], [ 656951.418009401066229, 3533621.983992386143655 ], [ 654628.429707553121261, 3531559.514856073539704 ], [ 652991.608262388384901, 3528937.451274409424514 ], [ 651866.495981039013714, 3528334.863781794905663 ], [ 650162.898398209013976, 3525879.95825688354671 ], [ 648778.877382341306657, 3523780.082971363794059 ], [ 645915.155749216326512, 3519290.81268507335335 ], [ 642181.094173121498898, 3515018.798776472918689 ], [ 643892.715864961966872, 3508576.456361240241677 ], [ 643914.024110409547575, 3506685.18096667015925 ], [ 643936.7343986320775, 3505369.306669324636459 ], [ 643970.375353927956894, 3502881.957539581228048 ], [ 643961.842881142860278, 3501393.354422349017113 ], [ 644208.182718943338841, 3493067.883728570770472 ], [ 639997.671813778579235, 3483883.907881713472307 ] ] } },
{ "type": "Feature", "properties": { "OBJECTID": 26, "线路名": "地铁2号线(鱼嘴-经天路)", "Shape_Leng": 0.39957878833799998 }, "geometry": { "type": "LineString", "coordinates": [ [ 657320.630845476291142, 3538204.189820679835975 ], [ 658086.935389869613573, 3538119.07106432504952 ], [ 659388.446622660732828, 3537720.301958271302283 ], [ 660289.437713254941627, 3537567.319763637613505 ], [ 662164.472751559689641, 3538224.995771747548133 ], [ 662258.510470845620148, 3540134.762853626161814 ], [ 662127.361212797346525, 3541489.510615164414048 ], [ 662838.390887216082774, 3542485.800870691426098 ], [ 663503.886412638355978, 3543662.846147535834461 ], [ 663773.343783902935684, 3545137.67183338990435 ], [ 664519.349853253224865, 3545858.121707111597061 ], [ 665598.412541312980466, 3546159.205896233208477 ], [ 666343.392197112902068, 3546754.631464382633567 ], [ 667196.417231953470036, 3546711.661525247618556 ], [ 667966.621606981148943, 3546673.904736314434558 ], [ 668966.170495123951696, 3546609.801053826697171 ], [ 670006.19477617891971, 3546539.847713025286794 ], [ 671305.713930394267663, 3546452.258638850878924 ], [ 672786.579072609660216, 3546575.841037819627672 ], [ 674056.718440121621825, 3546318.067278632428497 ], [ 674993.980312793282792, 3546111.542274724692106 ], [ 676032.738091266481206, 3546542.23359040915966 ], [ 678390.990523611428216, 3547749.778246892616153 ], [ 679421.594477828242816, 3550193.047805446665734 ], [ 679296.399497376405634, 3551671.826508804224432 ], [ 680413.77588216192089, 3552408.031473099719733 ], [ 681678.194541002856568, 3553254.703010824508965 ], [ 682576.971269757603295, 3553833.277730365283787 ], [ 684377.695111391833052, 3554406.0232077781111 ], [ 685995.104416746180505, 3555252.820836182218045 ] ] } },
{ "type": "Feature", "properties": { "OBJECTID": 27, "线路名": "地铁1号线(中国药科大学-八卦洲大桥", "Shape_Leng": 0.40855943417500001 }, "geometry": { "type": "LineString", "coordinates": [ [ 680533.799811952747405, 3530933.457596187014133 ], [ 679610.658139357110485, 3532610.822464090306312 ], [ 678193.218339613173157, 3534879.593341923784465 ], [ 676942.954331936198287, 3535551.184258742257953 ], [ 675664.882271984010004, 3535280.569314267020673 ], [ 673886.131723022204824, 3534609.75685913162306 ], [ 672782.08029634563718, 3534340.734951163642108 ], [ 671678.81051890947856, 3534581.656939061358571 ], [ 671687.812275214586407, 3535879.923710838425905 ], [ 671538.125377808348276, 3536793.233968923334032 ], [ 671230.778887559194118, 3538108.099683359265327 ], [ 669417.501157726510428, 3538585.081288266927004 ], [ 668216.584108615294099, 3539595.043371432926506 ], [ 667174.172941504511982, 3539499.15367465512827 ], [ 666088.263278258964419, 3539717.035340593662113 ], [ 665927.537290826439857, 3541089.391175262164325 ], [ 667133.572508350480348, 3542799.136848148424178 ], [ 667766.563602925976738, 3544576.402585851494223 ], [ 667968.675445047440007, 3545480.80487340176478 ], [ 667965.873679076437838, 3546520.979354722891003 ], [ 667952.293091056984849, 3547709.960618719924241 ], [ 667900.341684874380007, 3548546.912590033374727 ], [ 667912.295720272697508, 3549817.595703095663339 ], [ 667862.764361279318109, 3550903.426951832603663 ], [ 669048.671869911020622, 3551739.845504791010171 ], [ 669555.826345842564479, 3552693.322333903051913 ], [ 670260.706868893816136, 3553475.076437139417976 ], [ 671003.766401298809797, 3555062.824660050217062 ], [ 671313.385804477380589, 3556171.80573361646384 ], [ 671296.836342638591304, 3557255.645601522643119 ], [ 672166.991102913627401, 3558042.565204850863665 ], [ 673307.63676559063606, 3558279.189982442650944 ] ] } },
{ "type": "Feature", "properties": { "OBJECTID": 28, "线路名": "地铁S4线(滁州高铁站-南京北站)", "Shape_Leng": 0.50800096278499995 }, "geometry": { "type": "LineString", "coordinates": [ [ 624065.543646903941408, 3563554.573757370468229 ], [ 622221.696627721074037, 3565538.911077125463635 ], [ 622283.901065140031278, 3567583.929075804539025 ], [ 622720.455641814041883, 3569520.284061611630023 ], [ 625336.17070152121596, 3569551.429304752033204 ], [ 627463.323069392237812, 3570227.303546831011772 ], [ 630129.81593959662132, 3572725.240493054501712 ], [ 630473.007017493131571, 3575570.839196918997914 ], [ 632360.050413897610269, 3576061.064188491553068 ], [ 637760.313390405382961, 3575494.55445250030607 ], [ 641589.115249629714526, 3573749.278137925546616 ], [ 646502.439267697161995, 3569601.479685926809907 ], [ 648784.02716452779714, 3568117.552481665741652 ], [ 649925.139685626374558, 3565220.773109449539334 ], [ 655873.54182240110822, 3562723.61670954991132 ], [ 656094.53466691437643, 3560218.870333096012473 ] ] } },
{ "type": "Feature", "properties": { "OBJECTID": 29, "线路名": "地铁8号线(中华门-十月广场)", "Shape_Leng": 0.28432427026099999 }, "geometry": { "type": "LineString", "coordinates": [ [ 667143.718367803608999, 3542795.313855284824967 ], [ 668764.986812708666548, 3542643.765730297192931 ], [ 669929.601159655954689, 3543012.818217411171645 ], [ 670670.992789359763265, 3543796.202165254857391 ], [ 671834.344810568261892, 3544038.155986499041319 ], [ 673685.881900963489898, 3543732.155410498846322 ], [ 675675.275351869175211, 3544354.721210765186697 ], [ 677416.441671943292022, 3544301.885170185007155 ], [ 679741.882118441048078, 3544370.013781901448965 ], [ 680607.80032540182583, 3545120.282250805292279 ], [ 681157.360120964935049, 3545855.409147561527789 ], [ 681246.920733496313915, 3546651.079988321755081 ], [ 681434.293748921016231, 3548226.241185832768679 ], [ 682347.943602236337028, 3550644.433114368468523 ], [ 681609.899533867486753, 3553224.829351904802024 ], [ 680540.901138725806959, 3554933.327563848346472 ], [ 679948.592694422230124, 3555888.058481662534177 ], [ 678577.50125903415028, 3556507.27399335289374 ], [ 678115.106234940816648, 3557609.007114690728486 ] ] } },
{ "type": "Feature", "properties": { "OBJECTID": 30, "线路名": "地铁4号线二期(龙江-珍珠泉)", "Shape_Leng": 0.096131711933599998 }, "geometry": { "type": "LineString", "coordinates": [ [ 663540.028219649917446, 3548394.956471876241267 ], [ 659486.769965844461694, 3550891.8164136512205 ], [ 658899.776982263894752, 3551387.209729895461351 ], [ 658360.74058711505495, 3551849.032697818707675 ], [ 657397.99598067405168, 3552667.170184356626123 ], [ 657269.287052792496979, 3553488.058154947590083 ], [ 658144.435482699424028, 3554490.748764869756997 ] ] } },
{ "type": "Feature", "properties": { "OBJECTID": 31, "线路名": "地铁13号线(乐山路-金箔路)", "Shape_Leng": 0.19868776433 }, "geometry": { "type": "LineString", "coordinates": [ [ 662915.499135236488655, 3547159.023955270648003 ], [ 663708.979006313486025, 3547130.421239291783422 ], [ 664559.508244108525105, 3547116.544911270029843 ], [ 665589.532409937120974, 3547367.042498092167079 ], [ 666582.518830030690879, 3547470.956524648237973 ], [ 667169.906881030881777, 3547623.984041810501367 ], [ 667941.078176070586778, 3547623.229022937826812 ], [ 669079.525690681766719, 3547444.331838340964168 ], [ 669989.298417849000543, 3547155.887153910007328 ], [ 670453.568730111583136, 3545984.154082007706165 ], [ 671554.968424530001357, 3545594.462453408166766 ], [ 672762.442591190338135, 3545342.980078891385347 ], [ 673393.01816083281301, 3545365.386025990359485 ], [ 673682.522232672898099, 3543715.723252716474235 ], [ 673521.512032744591124, 3542327.357274661306292 ], [ 674988.185303814709187, 3539720.278936481568962 ], [ 675094.129776409361511, 3538207.308431718498468 ], [ 675313.881571857491508, 3537144.121765658259392 ] ] } },
{ "type": "Feature", "properties": { "OBJECTID": 32, "线路名": "地铁S8号线(金牛湖-泰山新村)", "Shape_Leng": 0.41793685806899999 }, "geometry": { "type": "LineString", "coordinates": [ [ 684102.012924695503898, 3593920.50125583447516 ], [ 681281.570168467471376, 3589652.309604277368635 ], [ 677441.860613705241121, 3586567.223147906828672 ], [ 673579.495799537166022, 3581987.066152696497738 ], [ 673155.728101223125122, 3580628.751310281455517 ], [ 672385.332074862439185, 3579247.151078672148287 ], [ 670870.228179114870727, 3577485.977148038335145 ], [ 669460.942394410609268, 3575910.689960651565343 ], [ 667644.142086126143113, 3573691.969633292406797 ], [ 666835.492561757215299, 3572361.306445103604347 ], [ 664718.125861480133608, 3569109.755858334712684 ], [ 663461.504398367134854, 3567365.797421504277736 ], [ 662593.482922022114508, 3565767.012686302885413 ], [ 662283.474144345615059, 3564445.659849892836064 ], [ 661631.887720387079753, 3561666.508791872300208 ], [ 661648.719121064990759, 3559022.059422510210425 ], [ 661349.527405983884819, 3557985.427754878997803 ] ] } },
{ "type": "Feature", "properties": { "OBJECTID": 33, "线路名": "地铁8号线(十月广场-中华门)", "Shape_Leng": 0.28432427026099999 }, "geometry": { "type": "LineString", "coordinates": [ [ 678115.106234940816648, 3557609.007114690728486 ], [ 678577.50125903415028, 3556507.27399335289374 ], [ 679948.592694422230124, 3555888.058481662534177 ], [ 680540.901138725806959, 3554933.327563848346472 ], [ 681609.899533867486753, 3553224.829351904802024 ], [ 682347.943602236337028, 3550644.433114368468523 ], [ 681434.293748921016231, 3548226.241185832768679 ], [ 681246.920733496313915, 3546651.079988321755081 ], [ 681157.360120964935049, 3545855.409147561527789 ], [ 680607.80032540182583, 3545120.282250805292279 ], [ 679741.882118441048078, 3544370.013781901448965 ], [ 677416.441671943292022, 3544301.885170185007155 ], [ 675675.275351869175211, 3544354.721210765186697 ], [ 673685.881900963489898, 3543732.155410498846322 ], [ 671834.344810568261892, 3544038.155986499041319 ], [ 670670.992789359763265, 3543796.202165254857391 ], [ 669929.601159655954689, 3543012.818217411171645 ], [ 668764.986812708666548, 3542643.765730297192931 ], [ 667143.718367803608999, 3542795.313855284824967 ] ] } },
{ "type": "Feature", "properties": { "OBJECTID": 34, "线路名": "地铁S7号线(空港新城江宁-无想山)", "Shape_Leng": 0.25813182121599998 }, "geometry": { "type": "LineString", "coordinates": [ [ 678334.604312166571617, 3513139.244371679611504 ], [ 683072.441787153016776, 3515318.675299437716603 ], [ 687979.699704055441543, 3512861.419732619542629 ], [ 690346.247190249036066, 3511495.929227732121944 ], [ 693149.405095348716713, 3507678.936780351214111 ], [ 693334.11101694626268, 3505011.117873480077833 ], [ 693435.067040760652162, 3503296.164371294900775 ], [ 693565.018130275653675, 3500848.505973885301501 ], [ 693615.061227978207171, 3499371.24048014357686 ] ] } },
{ "type": "Feature", "properties": { "OBJECTID": 35, "线路名": "地铁2号线(经天路-鱼嘴)", "Shape_Leng": 0.39957878833799998 }, "geometry": { "type": "LineString", "coordinates": [ [ 685995.104416746180505, 3555252.820836182218045 ], [ 684377.695111391833052, 3554406.0232077781111 ], [ 682576.971269757603295, 3553833.277730365283787 ], [ 681678.194541002856568, 3553254.703010824508965 ], [ 680413.77588216192089, 3552408.031473099719733 ], [ 679296.399497376405634, 3551671.826508804224432 ], [ 679421.594477828242816, 3550193.047805446665734 ], [ 678390.990523611428216, 3547749.778246892616153 ], [ 676032.738091266481206, 3546542.23359040915966 ], [ 674993.980312793282792, 3546111.542274724692106 ], [ 674056.718440121621825, 3546318.067278632428497 ], [ 672786.579072609660216, 3546575.841037819627672 ], [ 671305.713930394267663, 3546452.258638850878924 ], [ 670006.19477617891971, 3546539.847713025286794 ], [ 668966.170495123951696, 3546609.801053826697171 ], [ 667966.621606981148943, 3546673.904736314434558 ], [ 667196.417231953470036, 3546711.661525247618556 ], [ 666343.392197112902068, 3546754.631464382633567 ], [ 665598.412541312980466, 3546159.205896233208477 ], [ 664519.349853253224865, 3545858.121707111597061 ], [ 663773.343783902935684, 3545137.67183338990435 ], [ 663503.886412638355978, 3543662.846147535834461 ], [ 662838.390887216082774, 3542485.800870691426098 ], [ 662127.361212797346525, 3541489.510615164414048 ], [ 662258.510470845620148, 3540134.762853626161814 ], [ 662164.472751559689641, 3538224.995771747548133 ], [ 660289.437713254941627, 3537567.319763637613505 ], [ 659388.446622660732828, 3537720.301958271302283 ], [ 658086.935389869613573, 3538119.07106432504952 ], [ 657320.630845476291142, 3538204.189820679835975 ] ] } },
{ "type": "Feature", "properties": { "OBJECTID": 36, "线路名": "地铁4号线二期(珍珠泉-龙江)", "Shape_Leng": 0.096131711933599998 }, "geometry": { "type": "LineString", "coordinates": [ [ 658144.435482699424028, 3554490.748764869756997 ], [ 657269.287052792496979, 3553488.058154947590083 ], [ 657397.99598067405168, 3552667.170184356626123 ], [ 658360.74058711505495, 3551849.032697818707675 ], [ 658899.776982263894752, 3551387.209729895461351 ], [ 659486.769965844461694, 3550891.8164136512205 ], [ 663540.028219649917446, 3548394.956471876241267 ] ] } },
{ "type": "Feature", "properties": { "OBJECTID": 37, "线路名": "地铁4号线(仙林湖-龙江)", "Shape_Leng": 0.31393874295300001 }, "geometry": { "type": "LineString", "coordinates": [ [ 687472.68679869454354, 3556302.439290362875909 ], [ 687908.131652993848547, 3553358.364966434892267 ], [ 687072.454095029272139, 3551732.230502675753087 ], [ 684915.337569252355024, 3550914.713025472126901 ], [ 682990.832187956664711, 3550923.759605275001377 ], [ 681791.848025019513443, 3550951.849912489764392 ], [ 679475.376570730586536, 3550206.987945768050849 ], [ 677809.40844530868344, 3551618.084704894106835 ], [ 675451.771753860753961, 3552588.525523379910737 ], [ 672972.329234176198952, 3551593.475009249988943 ], [ 672339.238667505094782, 3550729.772556766401976 ], [ 670933.046517318114638, 3549353.514010099228472 ], [ 669992.739762156968936, 3548441.757654413580894 ], [ 669194.196513512986712, 3548436.618335276376456 ], [ 667848.093020769185387, 3548561.096296285279095 ], [ 667035.512822548625991, 3548582.747752041555941 ], [ 665251.248718166258186, 3548703.090812404640019 ], [ 663540.036710412241518, 3548394.956608191598207 ] ] } },
{ "type": "Feature", "properties": { "OBJECTID": 38, "线路名": "地铁7号线(仙新路-西善桥)", "Shape_Leng": 0.326626446234 }, "geometry": { "type": "LineString", "coordinates": [ [ 678325.324728299397975, 3556302.251155349891633 ], [ 677622.194799299235456, 3555832.864146647974849 ], [ 676507.559628768009134, 3555005.775074073113501 ], [ 675029.639407301903702, 3554124.080090415198356 ], [ 674161.168825192144141, 3554424.737066853325814 ], [ 672446.615111682447605, 3555382.814220329280943 ], [ 671244.650442491983995, 3555103.437776525039226 ], [ 669215.702287757536396, 3554756.611626023426652 ], [ 667218.362937209196389, 3554260.461227861698717 ], [ 666633.653022589045577, 3553690.342494501266629 ], [ 666699.984078960726038, 3552164.460162829142064 ], [ 665582.965816176263615, 3550887.413485301658511 ], [ 665418.17008814169094, 3549959.335446145385504 ], [ 665261.416840642690659, 3548617.165108672343194 ], [ 665608.377950706169941, 3547370.027321225497872 ], [ 665632.836685202550143, 3546144.180336471181363 ], [ 665451.296713050687686, 3545596.357286515180022 ], [ 665166.706827083718963, 3544607.098961943760514 ], [ 664673.30382598284632, 3543750.571209394838661 ], [ 664455.212454258464277, 3542429.387927366420627 ], [ 663813.825561340083368, 3541414.666770008858293 ], [ 663265.658676138613373, 3540663.30865464033559 ], [ 662727.942067174357362, 3539953.870326882693917 ], [ 661400.063808011123911, 3539201.211768212262541 ], [ 660465.174069308675826, 3538235.683236115146428 ], [ 660314.37469134258572, 3537683.695146770216525 ], [ 659265.941152159590274, 3535973.43659418867901 ] ] } },
{ "type": "Feature", "properties": { "OBJECTID": 39, "线路名": "地铁11号线(马骡圩-浦洲路)", "Shape_Leng": 0.24944244237900001 }, "geometry": { "type": "LineString", "coordinates": [ [ 649573.31341284676455, 3538870.395268845371902 ], [ 651562.176249825628474, 3541883.994839946273714 ], [ 652360.214199069188908, 3543224.326690985355526 ], [ 653088.521044309949502, 3544394.056761699728668 ], [ 653934.632384680444375, 3545432.417066664434969 ], [ 654530.060971413040534, 3546316.116346535272896 ], [ 655143.978246022714302, 3547155.5535952844657 ], [ 656184.625952127156779, 3548603.154427038971335 ], [ 657041.115116423694417, 3550219.178316509816796 ], [ 658251.974677155842073, 3550761.112584332935512 ], [ 658901.572633402654901, 3551385.715826424770057 ], [ 659479.044776213355362, 3552056.962447963654995 ], [ 659849.20074329059571, 3552607.776741039473563 ], [ 660876.955569468671456, 3553556.864771499764174 ], [ 661170.926477367756888, 3554105.422101990319788 ], [ 661603.3857839332195, 3555109.659031110815704 ], [ 662779.380742224399, 3555998.429549443069845 ], [ 663451.826976933516562, 3556286.366461567115039 ], [ 664236.710629435139708, 3557555.155053700786084 ], [ 664417.093276942847297, 3559248.998031904455274 ] ] } },
{ "type": "Feature", "properties": { "OBJECTID": 40, "线路名": "地铁S1号线(南京南站-空港新城江宁)", "Shape_Leng": 0.29052767704900001 }, "geometry": { "type": "LineString", "coordinates": [ [ 669291.794567076140083, 3538842.572342129889876 ], [ 668192.194349665660411, 3535674.378377550747246 ], [ 668877.693439991096966, 3532551.279921476729214 ], [ 669326.246690650703385, 3529440.087154348380864 ], [ 670377.714903317624703, 3524932.55244716303423 ], [ 671980.162203746731393, 3519010.29905593348667 ], [ 672760.140417591668665, 3514939.788183385506272 ], [ 676986.763761800481007, 3512309.32398181129247 ], [ 678334.604460429982282, 3513139.235797208733857 ] ] } },
{ "type": "Feature", "properties": { "OBJECTID": 41, "线路名": "地铁3号线(秣周东路-林场)", "Shape_Leng": 0.39840060313600001 }, "geometry": { "type": "LineString", "coordinates": [ [ 672748.185080045717768, 3527602.857364308554679 ], [ 672627.114900042302907, 3530602.205996247939765 ], [ 672551.494076912174933, 3531913.841359713580459 ], [ 671697.85125450254418, 3532784.346008736174554 ], [ 670486.861567667336203, 3534117.174827150534838 ], [ 670352.691316842101514, 3535853.560941783711314 ], [ 669970.845455649774522, 3537584.486979665234685 ], [ 669427.054692421690561, 3538588.557606896851212 ], [ 669633.311871996382251, 3539540.912223708350211 ], [ 669582.058817430399358, 3540513.69547270052135 ], [ 669125.254643962951377, 3541504.999660464935005 ], [ 668807.743617421481758, 3542495.672142441850156 ], [ 669009.379936269950122, 3543585.947242620866746 ], [ 668640.089104458224028, 3544748.341358466073871 ], [ 668756.152597066946328, 3545795.581030080094934 ], [ 668979.123506960691884, 3546721.620613233186305 ], [ 669102.501368468278088, 3547540.65660934150219 ], [ 669233.665249893674627, 3548348.56956790946424 ], [ 670372.92532306688372, 3550583.88722017314285 ], [ 669050.3251938293688, 3551959.382687405217439 ], [ 668005.438644796377048, 3552561.789927606936544 ], [ 667222.909047651104629, 3554292.792062343563884 ], [ 666482.153945012018085, 3554841.454647928010672 ], [ 664207.492849193979055, 3557522.13603082485497 ], [ 663045.275898938532919, 3558695.146214110776782 ], [ 661472.238135195802897, 3559002.137464826926589 ], [ 660555.528398059308529, 3559276.344140666071326 ], [ 659506.760712462011725, 3559366.274729602504522 ], [ 657111.172207011259161, 3560027.973304596263915 ] ] } },
{ "type": "Feature", "properties": { "OBJECTID": 42, "线路名": "地铁S6号线(宁句线)(马群-句容)", "Shape_Leng": 0.397919615808 }, "geometry": { "type": "LineString", "coordinates": [ [ 678392.710842097178102, 3547742.469921011477709 ], [ 680303.440053054946475, 3548187.810313113965094 ], [ 681557.621813324396499, 3548183.62519543338567 ], [ 683854.82837777864188, 3548080.957770427688956 ], [ 689197.701183581259102, 3547885.235548770520836 ], [ 693267.239831504877657, 3549302.607257424853742 ], [ 694726.318408260820433, 3547786.57908465154469 ], [ 693264.023754046414979, 3546205.429116292390972 ], [ 699382.52182390447706, 3543502.685299461707473 ], [ 703902.086384414578788, 3541765.279507393017411 ], [ 705516.733371982816607, 3539664.335423486307263 ], [ 705418.439225244452246, 3536409.980335424654186 ], [ 704637.447325867484324, 3534120.278078524395823 ] ] } },
{ "type": "Feature", "properties": { "OBJECTID": 43, "线路名": "地铁7号线(西善桥-仙新路)", "Shape_Leng": 0.326626446234 }, "geometry": { "type": "LineString", "coordinates": [ [ 659265.941152159590274, 3535973.43659418867901 ], [ 660314.37469134258572, 3537683.695146770216525 ], [ 660465.174069308675826, 3538235.683236115146428 ], [ 661400.063808011123911, 3539201.211768212262541 ], [ 662727.942067174357362, 3539953.870326882693917 ], [ 663265.658676138613373, 3540663.30865464033559 ], [ 663813.825561340083368, 3541414.666770008858293 ], [ 664455.212454258464277, 3542429.387927366420627 ], [ 664673.30382598284632, 3543750.571209394838661 ], [ 665166.706827083718963, 3544607.098961943760514 ], [ 665451.296713050687686, 3545596.357286515180022 ], [ 665632.836685202550143, 3546144.180336471181363 ], [ 665608.377950706169941, 3547370.027321225497872 ], [ 665261.416840642690659, 3548617.165108672343194 ], [ 665418.17008814169094, 3549959.335446145385504 ], [ 665582.965816176263615, 3550887.413485301658511 ], [ 666699.984078960726038, 3552164.460162829142064 ], [ 666633.653022589045577, 3553690.342494501266629 ], [ 667218.362937209196389, 3554260.461227861698717 ], [ 669215.702287757536396, 3554756.611626023426652 ], [ 671244.650442491983995, 3555103.437776525039226 ], [ 672446.615111682447605, 3555382.814220329280943 ], [ 674161.168825192144141, 3554424.737066853325814 ], [ 675029.639407301903702, 3554124.080090415198356 ], [ 676507.559628768009134, 3555005.775074073113501 ], [ 677622.194799299235456, 3555832.864146647974849 ], [ 678325.324728299397975, 3556302.251155349891633 ] ] } },
{ "type": "Feature", "properties": { "OBJECTID": 44, "线路名": "地铁3号线三期(秣周东路-秣陵街道)", "Shape_Leng": 0.029286530012899999 }, "geometry": { "type": "LineString", "coordinates": [ [ 672748.193440690869465, 3527602.866281456314027 ], [ 673300.006406642729416, 3525871.209975462406874 ], [ 673195.379398148390464, 3524475.246347359381616 ] ] } },
{ "type": "Feature", "properties": { "OBJECTID": 45, "线路名": "地铁10号线(安德门-雨山路)", "Shape_Leng": 0.19970559603800001 }, "geometry": { "type": "LineString", "coordinates": [ [ 665971.793405704782344, 3540989.467381498776376 ], [ 664311.507730086217634, 3540030.839803253300488 ], [ 663244.315891631995328, 3540627.952978529967368 ], [ 662128.878247392945923, 3541485.295966063626111 ], [ 661786.992847082903609, 3542919.239043842069805 ], [ 662123.174743004958145, 3543677.741879396140575 ], [ 661685.729586920002475, 3544624.371761676855385 ], [ 660376.582002156181261, 3545520.315322439186275 ], [ 656701.141585424076766, 3548235.381506368517876 ], [ 655899.347340574255213, 3548736.674421637319028 ], [ 655086.117257829057053, 3549268.137082994449884 ], [ 653885.988161712535657, 3549007.952047710772604 ], [ 653094.715157242957503, 3548206.488984788302332 ], [ 652028.013973495690152, 3546754.635059831663966 ] ] } },
{ "type": "Feature", "properties": { "OBJECTID": 46, "线路名": "地铁12号线(金马路-牛首山)", "Shape_Leng": 0.27058783140699999 }, "geometry": { "type": "LineString", "coordinates": [ [ 679465.781101889093406, 3550204.498353284783661 ], [ 680308.045229260693304, 3548176.077668754383922 ], [ 679853.224475089227781, 3545654.496948500629514 ], [ 679055.437503871973604, 3543951.061375618446618 ], [ 677681.902922646142542, 3543104.446203378029168 ], [ 676549.615280518424697, 3541983.200033172499388 ], [ 675965.243467118823901, 3540835.369812136050314 ], [ 676967.045024383813143, 3539852.894934196490794 ], [ 675900.695392652065493, 3538196.44560029450804 ], [ 675321.164382981369272, 3537130.136526195332408 ], [ 673946.431468734517694, 3535801.991358901839703 ], [ 673262.823724347283132, 3535751.019699730910361 ], [ 671698.912652222556062, 3534563.831061150878668 ], [ 670472.711866854457185, 3534182.112565916962922 ], [ 669260.021953083574772, 3534001.544972925446928 ], [ 668861.596859447075985, 3532545.512829734012485 ], [ 667519.089604687062092, 3532028.244657129980624 ], [ 665628.446377583779395, 3532321.895568975247443 ] ] } },
{ "type": "Feature", "properties": { "OBJECTID": 47, "线路名": "地铁5号线(吉印大道-方家营)", "Shape_Leng": 0.32277676990100002 }, "geometry": { "type": "LineString", "coordinates": [ [ 669324.970104492502287, 3529438.931345107033849 ], [ 670721.364689069218002, 3530231.440327099058777 ], [ 672644.755645034718327, 3532069.148153455927968 ], [ 673845.629372742492706, 3532214.891035844106227 ], [ 674416.353891708655283, 3533650.546008610632271 ], [ 674000.587726553669199, 3534627.493366008624434 ], [ 673963.150631227646954, 3535705.105146393179893 ], [ 673770.600758206099272, 3536961.810113918036222 ], [ 673391.062506772810593, 3538121.842498001176864 ], [ 673318.200343538774177, 3539030.636569178197533 ], [ 671987.415894456440583, 3540874.308935909066349 ], [ 671890.005356217967346, 3541933.216748125385493 ], [ 671930.105528086423874, 3543065.017438278533518 ], [ 671840.060079847462475, 3544087.596560667268932 ], [ 670919.866426971042529, 3544705.967448549345136 ], [ 669972.362900838954374, 3544915.357907465659082 ], [ 668656.621396356960759, 3544666.82502958457917 ], [ 667849.863355067791417, 3544669.62530066864565 ], [ 666903.242822904139757, 3545650.953869700431824 ], [ 667220.148543310933746, 3546733.477862963452935 ], [ 667179.742634924710728, 3547630.635554299689829 ], [ 667035.069908580742776, 3548600.330975095741451 ], [ 666856.67858827393502, 3549631.418602173682302 ], [ 666163.108644725056365, 3550313.747743900399655 ], [ 665582.1752241399372, 3550887.830764016136527 ], [ 664881.643086109659635, 3551518.797098202165216 ], [ 663971.931369685102254, 3551611.705187155865133 ], [ 663483.065668245311826, 3552195.264539129566401 ], [ 663806.007998896995559, 3552613.262558239512146 ], [ 664213.376590048894286, 3553415.413949646987021 ] ] } },
{ "type": "Feature", "properties": { "OBJECTID": 48, "线路名": "地铁S4线(南京北站-滁州高铁站)", "Shape_Leng": 0.50800096278499995 }, "geometry": { "type": "LineString", "coordinates": [ [ 656094.53466691437643, 3560218.870333096012473 ], [ 655873.54182240110822, 3562723.61670954991132 ], [ 649925.139685626374558, 3565220.773109449539334 ], [ 648784.02716452779714, 3568117.552481665741652 ], [ 646502.439267697161995, 3569601.479685926809907 ], [ 641589.115249629714526, 3573749.278137925546616 ], [ 637760.313390405382961, 3575494.55445250030607 ], [ 632360.050413897610269, 3576061.064188491553068 ], [ 630473.007017493131571, 3575570.839196918997914 ], [ 630129.81593959662132, 3572725.240493054501712 ], [ 627463.323069392237812, 3570227.303546831011772 ], [ 625336.17070152121596, 3569551.429304752033204 ], [ 622720.455641814041883, 3569520.284061611630023 ], [ 622283.901065140031278, 3567583.929075804539025 ], [ 622221.696627721074037, 3565538.911077125463635 ], [ 624065.543646903941408, 3563554.573757370468229 ] ] } },
{ "type": "Feature", "properties": { "OBJECTID": 49, "线路名": "地铁12号线(牛首山-金马路)", "Shape_Leng": 0.27058783140699999 }, "geometry": { "type": "LineString", "coordinates": [ [ 665628.446377583779395, 3532321.895568975247443 ], [ 667519.089604687062092, 3532028.244657129980624 ], [ 668861.596859447075985, 3532545.512829734012485 ], [ 669260.021953083574772, 3534001.544972925446928 ], [ 670472.711866854457185, 3534182.112565916962922 ], [ 671698.912652222556062, 3534563.831061150878668 ], [ 673262.823724347283132, 3535751.019699730910361 ], [ 673946.431468734517694, 3535801.991358901839703 ], [ 675321.164382981369272, 3537130.136526195332408 ], [ 675900.695392652065493, 3538196.44560029450804 ], [ 676967.045024383813143, 3539852.894934196490794 ], [ 675965.243467118823901, 3540835.369812136050314 ], [ 676549.615280518424697, 3541983.200033172499388 ], [ 677681.902922646142542, 3543104.446203378029168 ], [ 679055.437503871973604, 3543951.061375618446618 ], [ 679853.224475089227781, 3545654.496948500629514 ], [ 680308.045229260693304, 3548176.077668754383922 ], [ 679465.781101889093406, 3550204.498353284783661 ] ] } },
{ "type": "Feature", "properties": { "OBJECTID": 50, "线路名": "地铁6号线(栖霞山-南京南站)", "Shape_Leng": 0.29723976328099999 }, "geometry": { "type": "LineString", "coordinates": [ [ 683705.96515362453647, 3558646.835210134740919 ], [ 681382.293660550145432, 3558880.869716462213546 ], [ 678007.398442861624062, 3557614.26841051178053 ], [ 676522.372822308447212, 3557559.037053921725601 ], [ 675115.043095318600535, 3557436.496839543804526 ], [ 673689.664396890671924, 3556996.271027230191976 ], [ 672592.601099957362749, 3555632.850489745847881 ], [ 672012.723008185625076, 3553398.01074274815619 ], [ 671047.906598615343682, 3552429.482420543208718 ], [ 671439.202123423223384, 3551335.129262121859938 ], [ 670934.940942153334618, 3549340.264617185574025 ], [ 671287.584578539477661, 3547740.295791016425937 ], [ 671225.568682857672684, 3546528.092432111036032 ], [ 671001.499528665910475, 3544683.23123271856457 ], [ 670734.542992508970201, 3543514.410872005391866 ], [ 670613.796310436911881, 3542863.547398686408997 ], [ 670358.069511285284534, 3541886.035894635599107 ], [ 670644.072073795599863, 3541325.808353550266474 ], [ 671066.354499184759334, 3540450.495084550231695 ], [ 669289.810896591981873, 3538849.552110603544861 ] ] } },
{ "type": "Feature", "properties": { "OBJECTID": 51, "线路名": "地铁6号线(南京南站-栖霞山)", "Shape_Leng": 0.29723976328099999 }, "geometry": { "type": "LineString", "coordinates": [ [ 669289.810896591981873, 3538849.552110603544861 ], [ 671066.354499184759334, 3540450.495084550231695 ], [ 670644.072073795599863, 3541325.808353550266474 ], [ 670358.069511285284534, 3541886.035894635599107 ], [ 670613.796310436911881, 3542863.547398686408997 ], [ 670734.542992508970201, 3543514.410872005391866 ], [ 671001.499528665910475, 3544683.23123271856457 ], [ 671225.568682857672684, 3546528.092432111036032 ], [ 671287.584578539477661, 3547740.295791016425937 ], [ 670934.940942153334618, 3549340.264617185574025 ], [ 671439.202123423223384, 3551335.129262121859938 ], [ 671047.906598615343682, 3552429.482420543208718 ], [ 672012.723008185625076, 3553398.01074274815619 ], [ 672592.601099957362749, 3555632.850489745847881 ], [ 673689.664396890671924, 3556996.271027230191976 ], [ 675115.043095318600535, 3557436.496839543804526 ], [ 676522.372822308447212, 3557559.037053921725601 ], [ 678007.398442861624062, 3557614.26841051178053 ], [ 681382.293660550145432, 3558880.869716462213546 ], [ 683705.96515362453647, 3558646.835210134740919 ] ] } },
{ "type": "Feature", "properties": { "OBJECTID": 52, "线路名": "地铁10号线二期(安德门-东麒路)", "Shape_Leng": 0.12788648903700001 }, "geometry": { "type": "LineString", "coordinates": [ [ 665971.776406826917082, 3540989.467404432129115 ], [ 667156.088735975208692, 3541118.465031071566045 ], [ 667764.609899416333064, 3541078.617240076418966 ], [ 669126.56609212141484, 3541484.804534739814699 ], [ 670650.357263035606593, 3541305.836188190151006 ], [ 671809.370876065106131, 3541872.444889602251351 ], [ 672296.075006135972217, 3542219.787822303827852 ], [ 673514.679772593779489, 3542350.925407245755196 ], [ 675376.897626847610809, 3542942.657825191505253 ], [ 676537.851622532820329, 3542766.735823679249734 ], [ 677672.283729729708284, 3542328.220391374081373 ] ] } }
]
}
