{
"type": "FeatureCollection",
"name": "scenic-spots",
"crs": { "type": "name", "properties": { "name": "urn:ogc:def:crs:EPSG::32650" } },
"features": [
{ "type": "Feature", "properties": { "Id": 0, "Name": "红山森林动物园" }, "geometry": { "type": "Point", "coordinates": [ 668726.392594539909624, 3552564.045805317815393 ] } },
{ "type": "Feature", "properties": { "Id": 0, "Name": "老门东" }, "geometry": { "type": "Point", "coordinates": [ 671132.488988676806912, 3543623.348431053571403 ] } },
{ "type": "Feature", "properties": { "Id": 0, "Name": "夫子庙" }, "geometry": { "type": "Point", "coordinates": [ 668823.39385510829743, 3546615.44532703794539 ] } },
{ "type": "Feature", "properties": { "Id": 0, "Name": "玄武湖" }, "geometry": { "type": "Point", "coordinates": [ 669111.129223006311804, 3548961.720697841141373 ] } },
{ "type": "Feature", "properties": { "Id": 0, "Name": "古鸡鸣寺" }, "geometry": { "type": "Point", "coordinates": [ 669095.688817349961028, 3548518.715446732472628 ] } },
{ "type": "Feature", "properties": { "Id": 0, "Name": "总统府" }, "geometry": { "type": "Point", "coordinates": [ 669305.658236113726161, 3546719.240001510363072 ] } },
{ "type": "Feature", "properties": { "Id": 0, "Name": "先锋书店（五台山总店）" }, "geometry": { "type": "Point", "coordinates": [ 666812.798273234628141, 3550618.021044841501862 ] } },
{ "type": "Feature", "properties": { "Id": 0, "Name": "钟山风景名胜区" }, "geometry": { "type": "Point", "coordinates": [ 670695.689232642995194, 3548588.998462876770645 ] } },
{ "type": "Feature", "properties": { "Id": 0, "Name": "百家湖" }, "geometry": { "type": "Point", "coordinates": [ 671365.033758162055165, 3534927.625398474745452 ] } },
{ "type": "Feature", "properties": { "Id": 0, "Name": "莫愁湖" }, "geometry": { "type": "Point", "coordinates": [ 665458.230409261304885, 3546065.926042852923274 ] } },
{ "type": "Feature", "properties": { "Id": 0, "Name": "侵华日军南京大屠杀遇难同胞纪念馆" }, "geometry": { "type": "Point", "coordinates": [ 664212.263460608315654, 3545824.664152861572802 ] } },
{ "type": "Feature", "properties": { "Id": 0, "Name": "紫峰大厦" }, "geometry": { "type": "Point", "coordinates": [ 667766.084857810521498, 3546823.546722632832825 ] } },
{ "type": "Feature", "properties": { "Id": 0, "Name": "燕子矶公园" }, "geometry": { "type": "Point", "coordinates": [ 670806.243416569544934, 3558299.39924397226423 ] } },
{ "type": "Feature", "properties": { "Id": 0, "Name": "绿博园" }, "geometry": { "type": "Point", "coordinates": [ 661333.773327936301939, 3544301.955915293190628 ] } },
{ "type": "Feature", "properties": { "Id": 0, "Name": "雨花台风景区" }, "geometry": { "type": "Point", "coordinates": [ 667157.342635587672703, 3541287.778364476747811 ] } },
{ "type": "Feature", "properties": { "Id": 0, "Name": "瞻园" }, "geometry": { "type": "Point", "coordinates": [ 670203.144292963552289, 3544852.820300885010511 ] } },
{ "type": "Feature", "properties": { "Id": 0, "Name": "六朝博物馆" }, "geometry": { "type": "Point", "coordinates": [ 669419.814693048363551, 3546732.315344831440598 ] } },
{ "type": "Feature", "properties": { "Id": 0, "Name": "南京鱼嘴湿地公园" }, "geometry": { "type": "Point", "coordinates": [ 656226.180103892693296, 3538142.898308396805078 ] } },
{ "type": "Feature", "properties": { "Id": 0, "Name": "白鹭洲公园" }, "geometry": { "type": "Point", "coordinates": [ 668968.725938237737864, 3544197.903940747492015 ] } },
{ "type": "Feature", "properties": { "Id": 0, "Name": "鼓楼公园" }, "geometry": { "type": "Point", "coordinates": [ 667801.652467509615235, 3548534.065185794141144 ] } },
{ "type": "Feature", "properties": { "Id": 0, "Name": "幕府山" }, "geometry": { "type": "Point", "coordinates": [ 669262.171541733550839, 3554722.273615266662091 ] } },
{ "type": "Feature", "properties": { "Id": 0, "Name": "清凉山公园" }, "geometry": { "type": "Point", "coordinates": [ 665593.937284763087519, 3547358.933909779880196 ] } },
{ "type": "Feature", "properties": { "Id": 0, "Name": "南京市博物馆" }, "geometry": { "type": "Point", "coordinates": [ 666952.156330090481788, 3545657.805668172426522 ] } },
{ "type": "Feature", "properties": { "Id": 0, "Name": "江宁织造博物馆" }, "geometry": { "type": "Point", "coordinates": [ 668972.348888166248798, 3546613.561252038460225 ] } },
{ "type": "Feature", "properties": { "Id": 0, "Name": "羊山生态森林公园" }, "geometry": { "type": "Point", "coordinates": [ 683311.590487889014184, 3554255.376364265102893 ] } },
{ "type": "Feature", "properties": { "Id": 0, "Name": "东山公园" }, "geometry": { "type": "Point", "coordinates": [ 673214.33473703940399, 3537070.306793602649122 ] } },
{ "type": "Feature", "properties": { "Id": 0, "Name": "甘熙故居" }, "geometry": { "type": "Point", "coordinates": [ 667804.415323502849787, 3544692.660778212361038 ] } },
{ "type": "Feature", "properties": { "Id": 0, "Name": "郑和公园" }, "geometry": { "type": "Point", "coordinates": [ 669038.206227604416199, 3545442.981434270739555 ] } },
{ "type": "Feature", "properties": { "Id": 0, "Name": "静海寺" }, "geometry": { "type": "Point", "coordinates": [ 664829.743308289442211, 3553913.953710006549954 ] } },
{ "type": "Feature", "properties": { "Id": 0, "Name": "南京明故宫遗址" }, "geometry": { "type": "Point", "coordinates": [ 671598.292276489548385, 3546412.923079261556268 ] } }
]
}
